CUTE-1 (CO-55)          
1 27844U 03031E   26192.83459775  .00000160  00000+0  88088-4 0  9992
2 27844  98.6741 201.0838 0010755 111.2957 248.9371 14.24350218195186
CUBESAT XI-IV (CO-57)   
1 27848U 03031J   26192.55431067  .00000130  00000+0  76240-4 0  9993
2 27848  98.6772 200.4999 0010408 128.9651 231.2457 14.23633286194846
CUBESAT XI-V            
1 28895U 05043F   26192.38715503  .00000804  00000+0  13420-3 0  9990
2 28895  98.3011 348.5214 0015131 126.3821 233.8784 14.72696464105311
CUTE-1.7+APD II (CO-65) 
1 32785U 08021C   26193.17211470  .00003133  00000+0  19866-3 0  9992
2 32785  97.8286 175.1161 0007285 311.6931  48.3673 15.09682301988961
CANX-2                  
1 32790U 08021H   26192.87673804  .00002199  00000+0  15617-3 0  9998
2 32790  97.8654 173.1388 0009076 330.3855  29.6856 15.05793751988523
SEEDS II (CO-66)        
1 32791U 08021J   26192.54516377  .00010960  00000+0  34002-3 0  9998
2 32791  97.7522 191.6211 0002685 165.1600 194.9721 15.33584480991022
SWISSCUBE               
1 35932U 09051B   26193.20904170  .00000502  00000+0  10865-3 0  9990
2 35932  98.4012 101.5313 0007715 127.0520 233.1388 14.62527427892815
BEESAT-1                
1 35933U 09051C   26192.68394636  .00000417  00000+0  93456-4 0  9995
2 35933  98.3940 100.5811 0005925 139.0777 221.0870 14.61758535892766
ITUPSAT1                
1 35935U 09051E   26192.97035851  .00000388  00000+0  90106-4 0  9996
2 35935  98.4023 100.0372 0007861 152.4089 207.7529 14.60475983892353
TISAT 1                 
1 36799U 10035E   26192.80356677  .00012017  00000+0  38373-3 0  9992
2 36799  98.0706 141.5552 0004240 126.9872 233.1757 15.32645486871473
STRAND-1                
1 39090U 13009E   26192.98048947  .00000155  00000+0  66460-4 0  9999
2 39090  98.3932  12.6059 0009239 149.9394 210.2325 14.37177734700626
BRITE-AUSTRIA           
1 39091U 13009F   26192.72551399  .00000091  00000+0  45385-4 0  9994
2 39091  98.4006  11.5552 0010564 160.5615 199.5976 14.36551598700572
NEE-01 PEGASO           
1 39151U 13018B   26190.63966526  .00001233  00000+0  12199-3 0  9996
2 39151  98.1250 335.5366 0013875  90.6498 269.6310 14.93776228714050
POPACS 2                
1 39269U 13055E   26193.19994429  .00013503 -90886-6  22033-3 0  9994
2 39269  80.9921 115.5530 0415176 113.4876 251.0542 14.91934936666943
POPACS 3                
1 39270U 13055F   26192.98925193  .00008884  00000+0  21063-3 0  9993
2 39270  80.9985 202.2840 0549182 354.4553   5.0705 14.56605836642168
ZACUBE-1 (TSHEPISOSAT)  
1 39417U 13066B   26192.93545885  .00001437  00000+0  11431-3 0  9994
2 39417  97.8011 155.3951 0043834 165.6614 194.5865 15.01320163684448
WNISAT-1                
1 39423U 13066H   26192.64173475  .00000695  00000+0  13427-3 0  9993
2 39423  97.7230 340.0659 0163663 154.4487 206.4918 14.58114987670298
TRITON-1                
1 39427U 13066M   26193.21413394  .00000893  00000+0  11216-3 0  9992
2 39427  97.8226 102.4496 0090337 151.7385 208.8773 14.81788851677791
GOMX-1                  
1 39430U 13066Q   26193.17531587  .00000908  00000+0  14265-3 0  9990
2 39430  97.6477  32.0614 0128571 357.9271   2.1386 14.69538407673581
CUBEBUG-2 (LO-74)       
1 39440U 13066AA  26193.11423713  .00001899  00000+0  17874-3 0  9995
2 39440  97.8909 142.2026 0055997 305.8130  53.7893 14.93954632680719
NEE-02 KRYSAOR          
1 39441U 13066AB  26192.77553344  .00001515  00000+0  17018-3 0  9996
2 39441  97.8892 131.8170 0065707 350.5702   9.4275 14.86730516679857
FUNCUBE-1 (AO-73)       
1 39444U 13066AE  26192.91261323  .00003917  00000+0  24262-3 0  9995
2 39444  97.8287 164.8814 0037972 118.2418 242.2652 15.09793381683390
UWE-3                   
1 39446U 13066AG  26192.81148793  .00001794  00000+0  15713-3 0  9993
2 39446  97.8698 149.0559 0047517 236.3304 123.3381 14.97185641681263
BRITE-CA1 (TORONTO)     
1 40020U 14033L   26192.83734130  .00000569  00000+0  93137-4 0  9992
2 40020  97.9767 321.3152 0078193 197.0405 162.8175 14.72718584645848
DUCHIFAT-1              
1 40021U 14033M   26192.66620544  .00095138  00000+0  77604-3 0  9993
2 40021  98.0458 255.3712 0001920 269.1618  90.9422 15.70315468659582
NANOSATC-BR1            
1 40024U 14033Q   26192.63581423  .00010408  00000+0  33686-3 0  9994
2 40024  98.0715 227.2031 0005324 105.3164 254.8665 15.32251608657729
QB50P1                  
1 40025U 14033R   26192.99365557  .00005121  00000+0  25074-3 0  9990
2 40025  98.0966 205.8851 0010164 134.1703 226.0367 15.18635038656790
QB50P2                  
1 40032U 14033Y   26192.99492752  .00004304  00000+0  23118-3 0  9995
2 40032  98.0759 191.4259 0009351  92.6362 267.5939 15.15481398656425
PERSEUS-M2              
1 40037U 14033AD  26193.15302956  .00001778  00000+0  16554-3 0  9993
2 40037  97.9967 144.2037 0010661 209.4746 150.5874 14.95585479654518
PERSEUS-M1              
1 40039U 14033AF  26192.78949623  .00001260  00000+0  11856-3 0  9997
2 40039  97.9650 137.3273 0010725 208.5536 151.5098 14.95707086654319
